[{"OBJECT_NAME":"DONGPO 08","OBJECT_ID":"2022-167E","EPOCH":"2026-03-09T22:57:52.742880","MEAN_MOTION":15.31542505,"ECCENTRICITY":0.00092155,"INCLINATION":97.6764,"RA_OF_ASC_NODE":233.3854,"ARG_OF_PERICENTER":153.9158,"MEAN_ANOMALY":206.2548,"EPHEMERIS_TYPE":0,"CLASSIFICATION_TYPE":"U","NORAD_CAT_ID":54686,"ELEMENT_SET_NO":999,"REV_AT_EPOCH":18012,"BSTAR":0.0004734784,"MEAN_MOTION_DOT":0.0001437,"MEAN_MOTION_DDOT":0},{"OBJECT_NAME":"STARLINK-32867","OBJECT_ID":"2025-022B","EPOCH":"2026-03-09T11:42:51.406272","MEAN_MOTION":15.30189584,"ECCENTRICITY":0.00012788,"INCLINATION":53.1612,"RA_OF_ASC_NODE":130.2311,"ARG_OF_PERICENTER":68.3612,"MEAN_ANOMALY":291.7525,"EPHEMERIS_TYPE":0,"CLASSIFICATION_TYPE":"U","NORAD_CAT_ID":62855,"ELEMENT_SET_NO":999,"REV_AT_EPOCH":6187,"BSTAR":0.00071876974,"MEAN_MOTION_DOT":0.00020982,"MEAN_MOTION_DDOT":0}]
